{
  "type": "FeatureCollection",
  "features": [
    {
      "type": "Feature",
      "properties": {
        "norad_id": 26766,
        "name": "INTELSAT 10 (IS-10)",
        "group": "intelsat",
        "lat": -5.821852881402752,
        "lon": 18.886142693006853,
        "alt_km": 36126.129155301634,
        "timestamp": "2025-12-13T10:41:25.433305+00:00",
        "meta_object_name": "INTELSAT 10 (IS-10)",
        "meta_object_id": "2001-019A",
        "meta_epoch": "2025-12-12T13:59:22.280064",
        "meta_mean_motion": 0.99078624,
        "meta_eccentricity": 0.00077602,
        "meta_inclination": 8.6297,
        "meta_ra_of_asc_node": 61.1594,
        "meta_arg_of_pericenter": 225.253,
        "meta_mean_anomaly": 144.4037,
        "meta_ephemeris_type": 0,
        "meta_classification_type": "U",
        "meta_norad_cat_id": 26766,
        "meta_element_set_no": 999,
        "meta_rev_at_epoch": 4373,
        "meta_bstar": 0,
        "meta_mean_motion_dot": -2.8e-06,
        "meta_mean_motion_ddot": 0,
        "tle_line1": "1 26766U 01019A   25346.58289676 -.00000280  00000+0  00000+0 0  9998",
        "tle_line2": "2 26766   8.6297  61.1594 0007760 225.2530 144.4037  0.99078624 43731"
      },
      "geometry": {
        "type": "Point",
        "coordinates": [
          18.886142693006853,
          -5.821852881402752
        ]
      }
    },
    {
      "type": "Feature",
      "properties": {
        "norad_id": 26900,
        "name": "INTELSAT 902 (IS-902)",
        "group": "intelsat",
        "lat": 4.951845756094973,
        "lon": -167.29354041437162,
        "alt_km": 35778.000736809336,
        "timestamp": "2025-12-13T10:41:25.433330+00:00",
        "meta_object_name": "INTELSAT 902 (IS-902)",
        "meta_object_id": "2001-039A",
        "meta_epoch": "2025-12-11T04:42:42.842016",
        "meta_mean_motion": 1.00272526,
        "meta_eccentricity": 0.00044264,
        "meta_inclination": 5.6424,
        "meta_ra_of_asc_node": 74.0881,
        "meta_arg_of_pericenter": 184.9809,
        "meta_mean_anomaly": 201.6699,
        "meta_ephemeris_type": 0,
        "meta_classification_type": "U",
        "meta_norad_cat_id": 26900,
        "meta_element_set_no": 999,
        "meta_rev_at_epoch": 8881,
        "meta_bstar": 0,
        "meta_mean_motion_dot": -2.78e-06,
        "meta_mean_motion_ddot": 0,
        "tle_line1": "1 26900U 01039A   25345.19632919 -.00000278  00000+0  00000+0 0  9995",
        "tle_line2": "2 26900   5.6424  74.0881 0004426 184.9809 201.6699  1.00272526 88816"
      },
      "geometry": {
        "type": "Point",
        "coordinates": [
          -167.29354041437162,
          4.951845756094973
        ]
      }
    },
    {
      "type": "Feature",
      "properties": {
        "norad_id": 27380,
        "name": "INTELSAT 904 (IS-904)",
        "group": "intelsat",
        "lat": 4.150222225927898,
        "lon": -148.60626086187207,
        "alt_km": 35785.24323063196,
        "timestamp": "2025-12-13T10:41:25.433347+00:00",
        "meta_object_name": "INTELSAT 904 (IS-904)",
        "meta_object_id": "2002-007A",
        "meta_epoch": "2025-12-12T23:36:13.851360",
        "meta_mean_motion": 1.00272685,
        "meta_eccentricity": 0.00015329,
        "meta_inclination": 6.4555,
        "meta_ra_of_asc_node": 71.4294,
        "meta_arg_of_pericenter": 229.1955,
        "meta_mean_anomaly": 103.8506,
        "meta_ephemeris_type": 0,
        "meta_classification_type": "U",
        "meta_norad_cat_id": 27380,
        "meta_element_set_no": 999,
        "meta_rev_at_epoch": 4989,
        "meta_bstar": 0,
        "meta_mean_motion_dot": -2.15e-06,
        "meta_mean_motion_ddot": 0,
        "tle_line1": "1 27380U 02007A   25346.98349365 -.00000215  00000+0  00000+0 0  9993",
        "tle_line2": "2 27380   6.4555  71.4294 0001532 229.1955 103.8506  1.00272685 49892"
      },
      "geometry": {
        "type": "Point",
        "coordinates": [
          -148.60626086187207,
          4.150222225927898
        ]
      }
    },
    {
      "type": "Feature",
      "properties": {
        "norad_id": 27426,
        "name": "DIRECTV 5 (TEMPO 1)",
        "group": "intelsat",
        "lat": 3.6137913126657812,
        "lon": 132.50232677813383,
        "alt_km": 35796.95174477493,
        "timestamp": "2025-12-13T10:41:25.433362+00:00",
        "meta_object_name": "DIRECTV 5 (TEMPO 1)",
        "meta_object_id": "2002-023A",
        "meta_epoch": "2025-12-12T21:30:45.107424",
        "meta_mean_motion": 1.00272109,
        "meta_eccentricity": 0.00034627,
        "meta_inclination": 4.4028,
        "meta_ra_of_asc_node": 77.6516,
        "meta_arg_of_pericenter": 196.387,
        "meta_mean_anomaly": 20.3613,
        "meta_ephemeris_type": 0,
        "meta_classification_type": "U",
        "meta_norad_cat_id": 27426,
        "meta_element_set_no": 999,
        "meta_rev_at_epoch": 8625,
        "meta_bstar": 0,
        "meta_mean_motion_dot": -4.6e-07,
        "meta_mean_motion_ddot": 0,
        "tle_line1": "1 27426U 02023A   25346.89635541 -.00000046  00000+0  00000+0 0  9998",
        "tle_line2": "2 27426   4.4028  77.6516 0003462 196.3870  20.3613  1.00272109 86250"
      },
      "geometry": {
        "type": "Point",
        "coordinates": [
          132.50232677813383,
          3.6137913126657812
        ]
      }
    },
    {
      "type": "Feature",
      "properties": {
        "norad_id": 27438,
        "name": "INTELSAT 905 (IS-905)",
        "group": "intelsat",
        "lat": 3.480946902913372,
        "lon": 105.37163418417458,
        "alt_km": 35796.12668330889,
        "timestamp": "2025-12-13T10:41:25.433375+00:00",
        "meta_object_name": "INTELSAT 905 (IS-905)",
        "meta_object_id": "2002-027A",
        "meta_epoch": "2025-12-12T10:15:53.786304",
        "meta_mean_motion": 1.00273335,
        "meta_eccentricity": 0.00027053,
        "meta_inclination": 6.2853,
        "meta_ra_of_asc_node": 72.0601,
        "meta_arg_of_pericenter": 197.9433,
        "meta_mean_anomaly": 188.1472,
        "meta_ephemeris_type": 0,
        "meta_classification_type": "U",
        "meta_norad_cat_id": 27438,
        "meta_element_set_no": 999,
        "meta_rev_at_epoch": 4949,
        "meta_bstar": 0,
        "meta_mean_motion_dot": 1.03e-06,
        "meta_mean_motion_ddot": 0,
        "tle_line1": "1 27438U 02027A   25346.42770586  .00000103  00000+0  00000+0 0  9996",
        "tle_line2": "2 27438   6.2853  72.0601 0002705 197.9433 188.1472  1.00273335 49497"
      },
      "geometry": {
        "type": "Point",
        "coordinates": [
          105.37163418417458,
          3.480946902913372
        ]
      }
    },
    {
      "type": "Feature",
      "properties": {
        "norad_id": 27445,
        "name": "GALAXY 3C (G-3C)",
        "group": "intelsat",
        "lat": 3.018715056457932,
        "lon": 147.82769481584572,
        "alt_km": 35781.4327783591,
        "timestamp": "2025-12-13T10:41:25.433387+00:00",
        "meta_object_name": "GALAXY 3C (G-3C)",
        "meta_object_id": "2002-030A",
        "meta_epoch": "2025-12-12T23:18:08.085024",
        "meta_mean_motion": 1.00271516,
        "meta_eccentricity": 0.00011084,
        "meta_inclination": 3.265,
        "meta_ra_of_asc_node": 80.5046,
        "meta_arg_of_pericenter": 88.0134,
        "meta_mean_anomaly": 168.0613,
        "meta_ephemeris_type": 0,
        "meta_classification_type": "U",
        "meta_norad_cat_id": 27445,
        "meta_element_set_no": 999,
        "meta_rev_at_epoch": 4462,
        "meta_bstar": 0,
        "meta_mean_motion_dot": -1.4e-06,
        "meta_mean_motion_ddot": 0,
        "tle_line1": "1 27445U 02030A   25346.97092691 -.00000140  00000+0  00000+0 0  9994",
        "tle_line2": "2 27445   3.2650  80.5046 0001108  88.0134 168.0613  1.00271516 44621"
      },
      "geometry": {
        "type": "Point",
        "coordinates": [
          147.82769481584572,
          3.018715056457932
        ]
      }
    },
    {
      "type": "Feature",
      "properties": {
        "norad_id": 27513,
        "name": "INTELSAT 906 (IS-906)",
        "group": "intelsat",
        "lat": -4.1922159774018155,
        "lon": -53.2152036093014,
        "alt_km": 35766.28705188379,
        "timestamp": "2025-12-13T10:41:25.433399+00:00",
        "meta_object_name": "INTELSAT 906 (IS-906)",
        "meta_object_id": "2002-041A",
        "meta_epoch": "2025-12-12T20:28:51.278592",
        "meta_mean_motion": 1.00271514,
        "meta_eccentricity": 0.00061881,
        "meta_inclination": 5.3292,
        "meta_ra_of_asc_node": 75.2298,
        "meta_arg_of_pericenter": 192.8592,
        "meta_mean_anomaly": 185.0466,
        "meta_ephemeris_type": 0,
        "meta_classification_type": "U",
        "meta_norad_cat_id": 27513,
        "meta_element_set_no": 999,
        "meta_rev_at_epoch": 8516,
        "meta_bstar": 0,
        "meta_mean_motion_dot": 2.4e-07,
        "meta_mean_motion_ddot": 0,
        "tle_line1": "1 27513U 02041A   25346.85337128  .00000024  00000+0  00000+0 0  9996",
        "tle_line2": "2 27513   5.3292  75.2298 0006188 192.8592 185.0466  1.00271514 85164"
      },
      "geometry": {
        "type": "Point",
        "coordinates": [
          -53.2152036093014,
          -4.1922159774018155
        ]
      }
    }
  ]
}